STARLINK-36624          
1 67636U 26020V   26053.00003472  .00101705  00000+0  62148-3 0  9997
2 67636  42.9996 237.0806 0001782 278.4829 125.1910 15.76314803  4868
STARLINK-36610          
1 67637U 26020W   26053.83792238  .00224898  00000+0  13441-2 0  9994
2 67637  42.9982 232.2960 0002128 273.1707  86.8919 15.76427588  3747
STARLINK-36599          
1 67638U 26020X   26052.59505837  .00375504  00000+0  17085-2 0  9993
2 67638  42.9983 239.2951 0003095 287.9163  72.1371 15.82028119  3552
STARLINK-36595          
1 67639U 26020Y   26053.00003472  .00166476  00000+0  10093-2 0  9997
2 67639  42.9992 236.9868 0001767 266.7354 174.2725 15.76277063  4864
STARLINK-36570          
1 67640U 26020Z   26053.89471067  .00282506  00000+0  16708-2 0  9997
2 67640  43.0001 231.8587 0003607 272.3577  87.6880 15.76495963  3753
STARLINK-36514          
1 67641U 26020AA  26054.25002315  .00025825  00000+0  16126-3 0  9999
2 67641  42.9994 229.1690 0001821 268.0386 162.2807 15.76342230  5067
STARLINK-36556          
1 67642U 26020AB  26054.20058173  .00327780  00000+0  19302-2 0  9991
2 67642  42.9989 229.8429 0001942 307.5707  52.4986 15.76468815  3805
STARLINK-36533          
1 67643U 26020AC  26053.83353139 -.00080041  00000+0 -49318-3 0  9999
2 67643  42.9984 232.2588 0001126 319.7190  40.3596 15.76366936  3747
STARLINK-36623          
1 67644U 26020AD  26054.20714851  .00420757  00000+0  24482-2 0  9998
2 67644  42.9990 229.8992 0002201 344.4452  15.6350 15.76481653  3801
STARLINK-36619          
1 67645U 26020AE  26054.20496218  .00337751  00000+0  19910-2 0  9994
2 67645  42.9964 229.8787 0001159  25.1874 334.9052 15.76417332  3806
ALSAT-3B                
1 67646U 26021A   26054.26451863  .00008476  00000+0  35505-3 0  9997
2 67646  97.4690 128.6641 0012769 179.7384 180.3862 15.23714533  3520
